# JPL Small-Body Database Search Engine
# Results:  105 matching objects
#
# Constraints:   	comets and orbital class (IEO or IMB or ATE or MBA or PAA or APO or OMB or HYA or AMO or TJN or AST or MCA or CEN 
#		or HYP or ETc or PAR or CTc or JFC or JFc or HTC or COM) and diameter >= 0.2 (km) 
#
# Description
# -------------
# object fullname | prim. desig. | IAU name | prefix | NEO (Y/N) | PHA (Y/N) | H (absolute magnitude) | G (magnitude slope parameter (default is 0.15))|
# M1  (comet total magnitude parameter)| M2 (comet nuclear magnitude parameter)| K1 (comet total magnitude slope parameter)|
# K2 (comet nuclear magnitude slope parameter) | PC (comet nuclear magnitude law - phase coefficient) | diameter (km)|	
# extent (object bi/tri-axial ellipsoid dimensions in km)| albedo (geometric albedo)| rot_per (rotation period in hours) |
# GM (mass expressed as product mass and grav. const. G in km^3/s^2)| B-V (color index B-V in mag)| U-B (color index U-B i mag)|
# I-R (color index I-R in mag)| spec. type (spectral taxonomic type in SMASSII)| spec. type  (spectral taxonomic type in Tholen)|
# H-sigma (1-sigma uncertainty in abs. mag. param. H in mag) | diameter-sigma (1-sigma uncertainty in object diameter in km)| 	  
# orbit ID | epoch (epoch of osculation in JED)| epoch (epoch of osculation in MJD)| epoch (epoch of osculation in ET)|
# equinox (equinox of reference frame)| e (eccentricity)| a (semi-major axis in AU)| q (perihelion distance in AU)|
# i (inclinaison in deg)| node (longitude of the ascending node in deg)| peri (argument of perihelion in deg)|
# M (mean anomaly in deg)| Q (aphelion distance in AU)| n (Mean motion in deg/day)|tp (time of perihelion passage in JED)|
# tp (time of perihelion passage in ET)| period (orbital period in days)| period (orbital period in years)|
# Earth MOID (Earth Minimum Orbit Intersection Distance in AU)| Earth MOID (Earth Minimum Orbit Intersection Distance in light days)|
# Jupiter MOID (Jupiter Minimum Orbit Intersection Distance in Au)| T-Jupiter (Jupiter Tisserand Invariant)|
# e-sigma (eccentricity (1-sigma uncertainty))| a-sigma (semi-major axis (1-sigma uncertainty) in AU)|
# q-sigma (perihelion distance (1-sigma uncertainty) in AU)| i-sigma (inclination (1-sigma uncertainty) in deg)|
# node-sigma (long. of the asc. node (1-sigma uncertainty) in deg)| peri-sigma (argument of perihelion (1-sigma uncertainty) in deg)|
# M-sigma (mean anomaly (1-sigma uncertainty) in deg)|Q (1-sigma) (aphelion distance (1-sigma uncertainty) in AU)|
# n (1-sigma) (mean motion (1-sigma uncertainty in deg/day)| tp-sigma (time of peri. passage (1-sigma uncertainty) in days)|
# period-sigma (orbital period (1-sigma uncertainty) in days)| orbit class (orbit classification)|
# producer (name of person (or institution) who computed the orbit|
# data-arc span (number of days spanned by the data-arc in days)|
# date of first obs. (date of first observation used in the orbit fit in UT)|
# date of last obs. (date of last observation used in the orbit fit in UT)|
# obs. used (total) (number of observations (all types) used in fit)|
# obs. used (del.) (number of delay-radar observations used in fit)|
# obs. used (dop.) (number of Doppler-radar observations used in fit)|
# condition code (orbit condition code (MPC 'U' parameter)|
# norm. RMS of fit (normalized RMS of orbit fit in arcsec)| two-body model (2-body dynamics used flag T/F)|
# A1 (non-grav. radial parameter)| A2 (non-grav. transverse parameter)| A3 (non-grav. normal parameter)|
# DT (non-grav. peri.-maximum offset in days)
# 
167P/CINEOS |167P |CINEOS |P ||||||9.7 ||5.0 |0.03 |66.170 ||0.053 |||||||||22.900 |JPL 20 |2453075.5 |53075 |2004-Mar-11.0 |J2000 |.2699551843085261 |16.1408551156671 |11.78354759801997 |19.12720756917645 |295.8374388815109 |343.6495125063299 |16.20278505794441 |20.49816263331423 |.01519897375596318 |2452009.455323688391 |2001-Apr-09.9553237 |23685.8096987474 |64.8482127275767 |10.7718 |4192.061406 ||3.527 |2.0841E-5 |.00063946 |.00013335 |5.322E-5 |5.8604E-5 |.0033333 |.0027498 |.00081209 |9.0322E-7 |.11825 |1.4076 |CTc |Otto Matic |3416 |2002-06-12 |2011-10-19 |91 |||3 |.49055 ||||| 
C/1995 O1 (Hale-Bopp) |1995 O1 |Hale-Bopp |C |||||-15.1 |6.1 |28. |5. |0.03 |60 ||0.04 |||||||||20 |JPL 223 |2450365.5 |50365 |1996-Oct-09.0 |J2000 |.995213296666182 |191.0064717884599 |.9142913152906409 |89.43269534883738 |282.4722897964125 |130.5768076894707 |359.9349869059491 |381.0986522616291 |.0003733635782842797 |2450539.628109521717 |1997-Apr-01.1281095 |964207.6006832551 |2639.85653848941 |.111459 |43.37649903 |.00965094 |0.039 |1.1798E-6 |.047368 |1.5964E-6 |1.8083E-5 |8.5428E-6 |.0001005 |2.4193E-5 |.094509 |1.3889E-7 |5.8381E-5 |358.67 |COM |Davide Farnocchia |6430 |1993-04-27 |2010-12-04 |3297 ||||.54061 ||1.462167997233685E-8 |8.1064922925077E-10 || 
C/2011 KP36 (Spacewatch) |2011 KP36 |Spacewatch |C |||||7.3 |9.5 |7. |5. |0.03 |55.100 ||0.101 |||||||||19.400 |JPL 82 |2457307.5 |57307 |2015-Oct-12.0 |J2000 |.872849458055503 |38.40417225970588 |4.883111315751423 |18.98608553343621 |173.4011332953404 |180.6150148846316 |359.055632341046 |71.92523320366034 |.004141297787517024 |2457535.536646338402 |2016-May-27.0366463 |86929.27156437191 |237.999374577336 |3.8777 |1509.084509 |.0791851 |2.643 |2.699E-6 |.00083787 |3.0153E-6 |9.3372E-6 |1.8927E-5 |8.6066E-5 |3.3792E-5 |.0015692 |1.3553E-7 |.00073951 |2.8448 |JFc |Otto Matic |2100 |2011-05-21 |2017-02-18 |2739 |||2 |.40706 ||||| 
29P/Schwassmann-Wachmann 1 |29P |Schwassmann-Wachmann |P |||||5.6 ||7. |||30.8 ||0.033 ||||||||||JPL K192/4 |2454823.5 |54823 |2008-Dec-23.0 |J2000 |.04499193438229172 |5.987079787470965 |5.717709486531526 |9.394661585468519 |312.6342641082489 |48.13863586318407 |110.1395543452008 |6.256450088410404 |.06727930633100247 |2453186.450506604017 |2004-Jun-29.9505066 |5350.828057424711 |14.6497688088288 |4.72077 |1837.1820609 |.725266 |2.984 |2.5544E-8 |9.7447E-8 |2.1788E-7 |2.2021E-6 |1.2045E-5 |3.5546E-5 |3.3617E-5 |1.0183E-7 |1.6426E-9 |.0004747 |.00013064 |JFc |Davide Farnocchia |7397 |1997-03-04 |2017-06-04 |21199 |||0 |.75022 ||||| 
109P/Swift-Tuttle |109P |Swift-Tuttle |P |Y ||||4.5 |8.5 |15.0 |10.0 ||26 ||||||||||||JPL 32 |2450000.5 |50000 |1995-Oct-10.0 |J2000 |0.963225755046038 |26.0920694978266 |0.959516155068868 |113.453816997171 |139.3811920815948 |152.9821676305871 |7.631696167124212 |51.22462284058444 |.007395052881692476 |2448968.499784556297 |1992-Dec-11.9997846 |48681.19346262312 |133.281843840173 |.000892135 |0.34719217795 ||-0.28 |6.8344E-9 |8.2048E-7 |1.7657E-7 |2.1907E-5 |2.7841E-5 |3.2865E-5 |3.1321E-7 |1.6108E-6 |3.4881E-10 |2.9166E-5 |.0022962 |HTC |M.S.W. Keesey |94131 |1737-07-08 |1995-03-29 |652 |||0 |1.1984 ||||| 
28P/Neujmin 1 |28P |Neujmin |P |||||11.5 ||6.0 |||21.4 ||0.025 ||||||||||JPL 24 |2451766.5 |51766 |2000-Aug-10.0 |J2000 |.7759093253269371 |6.912463565429146 |1.549018624029983 |14.19753347182582 |347.0759239284694 |346.9537053820445 |312.8635216196395 |12.27590850682831 |.05423189637615032 |2452635.665224343691 |2002-Dec-27.1652243 |6638.159903224738 |18.1742913161526 |.542931 |211.29245727 |.929955 |2.163 |8.5058E-8 |1.5654E-7 |5.8085E-7 |1.5958E-5 |.00013894 |.00012936 |1.1989E-5 |2.78E-7 |1.8422E-9 |.00023908 |.0002255 |JFc |Davide Farnocchia |18570 |1966-05-16 |2017-03-19 |229 |||0 |.56436 ||||| 
C/2001 OG108 (LONEOS) |2001 OG108 |LONEOS |C |Y ||||13.2 ||12. |||13.6 ||0.054 |57.12 ||||||||1.0 |JPL 40 |2452248.5 |52248 |2001-Dec-05.0 |J2000 |.9252593010411703 |13.29995428610206 |.9940478794637511 |80.24505504971198 |10.55529569918225 |116.4195120718172 |357.9637887371742 |25.60586069274036 |.02032024086559319 |2452348.706059381585 |2002-Mar-15.2060594 |17716.32543045108 |48.504655524849 |.300836 |117.07634612 ||0.597 |8.2844E-7 |.00014724 |1.7844E-7 |2.2352E-5 |8.8997E-6 |1.7256E-5 |3.3856E-5 |.00028348 |3.3745E-7 |2.0345E-5 |.29421 |HTC |Otto Matic |340 |2001-07-28 |2002-07-03 |886 |||2 |.64725 ||||| 
C/1991 L3 (Levy) |1991 L3 |Levy |C |Y ||||8.8 |14.5 |15. |5. |0.03 |11.6 ||||||||||||JPL 9 |2448547.5 |48547 |1991-Oct-18.0 |J2000 |.9288178630692923 |13.80345566059359 |.9825594709493259 |19.19030996858108 |329.4309837211803 |41.47119826431925 |1.956559030180357 |26.62435185023786 |.01921862607558024 |2448445.694646043589 |1991-Jul-08.194646 |18731.82810177189 |51.2849503128594 |.0749881 |29.183118877 ||1.517 |4.1756E-6 |.00084136 |3.2183E-6 |6.7743E-5 |.00016585 |.00024774 |.00018056 |.0016228 |1.7571E-6 |.00012823 |1.7126 |HTC |Otto Matic |587 |1991-06-14 |1993-01-21 |125 |||3 |.9863 ||||| 
1P/Halley |1P |Halley |P |Y ||||5.5 |13.6 |8.0 |5.0 |0.03 |11.0 |14.9x8.2 |0.04 ||||||||||JPL J863/77 |2449400.5 |49400 |1994-Feb-17.0 |J2000 |0.967142908462304 |17.8341442925537 |0.585978111516909 |162.262690579161 |58.42008097656843 |111.3324851045177 |38.3842644764388 |35.08231047359043 |.01308656479244564 |2446467.395317050925 |1986-Feb-05.8953171 |27509.1290731861 |75.3158906863411 |.0637815 |24.821846355 ||-0.605 |5.035E-9 |3.8913E-8 |8.8924E-8 |6.7791E-6 |9.0539E-6 |1.1714E-5 |1.4226E-7 |7.6546E-8 |4.2831E-11 |4.7896E-6 |9.0034E-5 |HTC |M.S.W. Keesey |57852 |1835-08-21 |1994-01-11 |7428 ||||1.0147 ||2.696463929511566E-10 |1.554613388970244E-10 || 
65P/Gunn |65P |Gunn |P |||||7.9 |11.9 |12. |5. |0.03 |10.8 ||||||||||||JPL K173/1 |2454885.5 |54885 |2009-Feb-23.0 |J2000 |.319607567222068 |3.587371538555517 |2.440820448396101 |10.38555453153072 |68.36129021325937 |196.56859445 |306.0503411572773 |4.733922628714932 |.1450572823106481 |2455257.419685681044 |2010-Mar-01.9196857 |2481.778193176405 |6.7947383796753 |1.42593 |554.9291781 |.400257 |2.998 |4.6935E-8 |3.5311E-7 |3.5725E-7 |5.356E-6 |4.6593E-5 |3.9922E-5 |1.7049E-5 |4.6597E-7 |2.1418E-8 |8.8569E-5 |.00036643 |JFc |Davide Farnocchia |6363 |2000-01-03 |2017-06-05 |4611 |||0 |.62932 ||3.864737258697252E-9 |4.920161952680862E-9 |-1.500862048438929E-8 |-340.7035207239247
